CUTE-1 (CO-55)          
1 27844U 03031E   26087.74233344  .00000366  00000+0  17739-3 0  9999
2 27844  98.6773  97.3052 0010625  62.9133 297.3129 14.24281445180222
CUBESAT XI-IV (CO-57)   
1 27848U 03031J   26087.55006450  .00000301  00000+0  15152-3 0  9994
2 27848  98.6807  96.8929 0010614  79.7322 280.5053 14.23574119179900
CUBESAT XI-V            
1 28895U 05043F   26087.67640956  .00002007  00000+0  32469-3 0  9995
2 28895  98.2868 241.6643 0015362 101.1756 259.1179 14.72395539 89907
CUTE-1.7+APD II (CO-65) 
1 32785U 08021C   26088.21520637  .00009202  00000+0  59137-3 0  9996
2 32785  97.8228  68.0440 0007607 309.0033  51.0517 15.08638044973134
CANX-2                  
1 32790U 08021H   26087.92303245  .00005307  00000+0  37822-3 0  9992
2 32790  97.8588  66.2064 0009135 325.6115  34.4518 15.04997484972737
SEEDS II (CO-66)        
1 32791U 08021J   26087.50130163  .00022720  00000+0  78688-3 0  9997
2 32791  97.7522  81.7278 0001837 175.4551 184.6705 15.29863940974947
SWISSCUBE               
1 35932U 09051B   26088.18436285  .00001512  00000+0  30917-3 0  9999
2 35932  98.4083 354.6718 0008021  99.0217 261.1892 14.62312493877465
BEESAT-1                
1 35933U 09051C   26088.15283814  .00001256  00000+0  26274-3 0  9991
2 35933  98.4013 354.4405 0006362 110.1396 250.0489 14.61577749877497
ITUPSAT1                
1 35935U 09051E   26088.21098633  .00001150  00000+0  24801-3 0  9990
2 35935  98.4100 353.7747 0008450 121.1104 239.0925 14.60309071877061
TISAT 1                 
1 36799U 10035E   26088.07461447  .00025499  00000+0  91959-3 0  9994
2 36799  98.0655  27.7471 0003635 128.8120 231.3443 15.28514657855457
AEROCUBE 4.5A           
1 38767U 12048K   26088.03502285  .00109492  00000+0  10208-2 0  9992
2 38767  64.6361 312.5239 0036956 208.6195 151.2926 15.65877948360010
STRAND-1                
1 39090U 13009E   26087.78078808  .00000369  00000+0  13860-3 0  9991
2 39090  98.3903 269.9991 0009792 109.4666 250.7580 14.37110554685512
BRITE-AUSTRIA           
1 39091U 13009F   26088.03799880  .00000241  00000+0  96728-4 0  9995
2 39091  98.3973 269.4628 0011288 116.9430 243.2910 14.36506933685543
NEE-01 PEGASO           
1 39151U 13018B   26087.32981582  .00003936  00000+0  38166-3 0  9990
2 39151  98.1084 228.8894 0013749  73.4438 286.8289 14.93225120698639
POPACS 2                
1 39269U 13055E   26088.14057039  .00029281  00000+0  50118-3 0  9995
2 39269  80.9905 235.6658 0427029  90.7198 274.2952 14.88885074651292
POPACS 3                
1 39270U 13055F   26087.66915769  .00009885  00000+0  23989-3 0  9990
2 39270  81.0031 316.3964 0557308 315.0304  40.6998 14.54442225626847
ZACUBE-1 (TSHEPISOSAT)  
1 39417U 13066B   26088.13690990  .00005177  00000+0  40731-3 0  9998
2 39417  97.8137  50.0550 0044615 156.4937 203.8338 15.00497521668721
